NORAD_CAT_ID,OBJECT_NAME,OBJECT_TYPE,EPOCH,MEAN_MOTION,ECCENTRICITY,INCLINATION,RA_OF_ASC_NODE,ARG_OF_PERICENTER,MEAN_ANOMALY,BSTAR,MEAN_MOTION_DOT,MEAN_MOTION_DDOT,TLE_LINE0,TLE_LINE1,TLE_LINE2,SEMIMAJOR_AXIS,PERIOD,APOGEE,PERIGEE,DECAYED
51973.0,STARLINK-3679,PAYLOAD,2022-08-20 08:00:01,15.08824501,0.0001465,53.2166,93.1653,61.0314,16.2499,-0.0017904,-0.00028657,0.0,0 STARLINK-3679,1 51973U 22025T   22232.33334491 -.00028657  00000-0 -17904-2 0  9990,2 51973  53.2166  93.1653 0001465  61.0314  16.2499 15.08824501 26438,6917.928000000001,95.439,540.806,538.779,0.0
51973.0,STARLINK-3679,PAYLOAD,2022-08-20 14:00:01,15.08804473,0.0001457,53.2167,92.0426,66.8078,289.1531,0.0024690999999999,0.00039188,0.0,0 STARLINK-3679,1 51973U 22025T   22232.58334491  .00039188  00000-0  24691-2 0  9997,2 51973  53.2167  92.0426 0001457  66.8078 289.1531 15.08804473  1309,6917.989000000001,95.44,540.862,538.846,0.0
51973.0,STARLINK-3679,PAYLOAD,2022-08-20 22:00:00,15.08818553,0.0001610999999999,53.2165,90.5482,59.8702,307.656,-3.2806e-05,-8.1e-06,0.0,0 STARLINK-3679,1 51973U 22025T   22232.91667824 -.00000810  00000-0 -32806-4 0  9994,2 51973  53.2165  90.5482 0001611  59.8702 307.6560 15.08818553  1302,6917.946,95.439,540.925,538.696,0.0
51973.0,STARLINK-3679,PAYLOAD,2022-08-21 00:00:00,15.0880245,0.0001605,53.2166,90.1743,58.6439,41.7785,0.0021238,0.00033639,0.0,0 STARLINK-3679,1 51973U 22025T   22233.00001157  .00033639  00000-0  21238-2 0  9994,2 51973  53.2166  90.1743 0001605  58.6439  41.7785 15.08802450 26543,6917.995,95.44,540.971,538.75,0.0
51973.0,STARLINK-3679,PAYLOAD,2022-08-21 14:00:01,15.08821548,0.0001505,53.2163,87.5539,68.3496,322.3224,0.0019072,0.0003018,0.0,0 STARLINK-3679,1 51973U 22025T   22233.58334491  .00030180  00000-0  19072-2 0  9998,2 51973  53.2163  87.5539 0001505  68.3496 322.3224 15.08821548  1305,6917.937,95.439,540.8430000000002,538.761,0.0
51973.0,STARLINK-3679,PAYLOAD,2022-08-21 22:00:00,15.08829884,0.0001649,53.2162,86.0594,61.0403,341.2167,0.00019302,2.784e-05,0.0,0 STARLINK-3679,1 51973U 22025T   22233.91667824  .00002784  00000-0  19302-3 0  9990,2 51973  53.2162  86.0594 0001649  61.0403 341.2167 15.08829884 26670,6917.911,95.438,540.9169999999998,538.636,0.0
51973.0,STARLINK-3679,PAYLOAD,2022-08-22 12:00:00,15.08819357,0.000154,53.216,83.4389,68.0335,264.5106,0.0029573,0.00047065,0.0,0 STARLINK-3679,1 51973U 22025T   22234.50001157  .00047065  00000-0  29573-2 0  9998,2 51973  53.2160  83.4389 0001540  68.0335 264.5106 15.08819357  1309,6917.943,95.439,540.874,538.743,0.0
51973.0,STARLINK-3679,PAYLOAD,2022-08-22 22:00:00,15.08840875,0.000172,53.2162,81.5704,61.4104,15.6289,0.00047567,7.291e-05,0.0,0 STARLINK-3679,1 51973U 22025T   22234.91667824  .00007291  00000-0  47567-3 0  9993,2 51973  53.2162  81.5704 0001720  61.4104  15.6289 15.08840875  1308,6917.878000000002,95.437,540.933,538.553,0.0
51973.0,STARLINK-3679,PAYLOAD,2022-08-23 06:00:00,15.08868661,0.0001694,53.2161,80.0729,63.3429,25.2927,-0.0045236999999999,-0.00071624,0.0,0 STARLINK-3679,1 51973U 22025T   22235.25001157 -.00071624  00000-0 -45237-2 0  9996,2 51973  53.2161  80.0729 0001694  63.3429  25.2927 15.08868661 26888,6917.793000000002,95.436,540.83,538.486,0.0
51973.0,STARLINK-3679,PAYLOAD,2022-08-23 14:00:01,15.08826246,0.0001759,53.2163,78.5757,69.9502,30.2805,0.00084117,0.0001312,0.0,0 STARLINK-3679,1 51973U 22025T   22235.58334491  .00013120  00000-0  84117-3 0  9998,2 51973  53.2163  78.5757 0001759  69.9502  30.2805 15.08826246  1303,6917.922,95.438,541.004,538.571,0.0
51973.0,STARLINK-3679,PAYLOAD,2022-08-23 22:00:01,15.08820292,0.0001875999999999,53.2164,77.0811,63.0091,48.8719,0.00097089,0.00015189,0.0,0 STARLINK-3679,1 51973U 22025T   22235.91668981  .00015189  00000-0  97089-3 0  9998,2 51973  53.2164  77.0811 0001876  63.0091  48.8719 15.08820292  1301,6917.941,95.439,541.1030000000002,538.508,0.0
51973.0,STARLINK-3679,PAYLOAD,2022-08-24 14:00:01,15.08841543,0.0001818,53.2167,74.0866,70.2772,64.7052,0.0003708,5.618e-05,0.0,0 STARLINK-3679,1 51973U 22025T   22236.58334491  .00005618  00000-0  37080-3 0  9999,2 51973  53.2167  74.0866 0001818  70.2772  64.7052 15.08841543  1302,6917.876,95.437,540.998,538.4830000000002,0.0
51973.0,STARLINK-3679,PAYLOAD,2022-08-24 22:00:00,15.08827882,0.0001921999999999,53.2167,72.592,63.23,83.3556,0.0014689,0.00023159,0.0,0 STARLINK-3679,1 51973U 22025T   22236.91667824  .00023159  00000-0  14689-2 0  9994,2 51973  53.2167  72.5920 0001922  63.2300  83.3556 15.08827882  1307,6917.917,95.438,541.112,538.453,0.0
51973.0,STARLINK-3679,PAYLOAD,2022-08-25 06:00:02,15.08856394,0.0001816,53.2167,71.0941,66.7404,91.4993,-0.0014186,-0.00022805,0.0,0 STARLINK-3679,1 51973U 22025T   22237.25002315 -.00022805  00000-0 -14186-2 0  9991,2 51973  53.2167  71.0941 0001816  66.7404  91.4993 15.08856394 27188,6917.83,95.437,540.952,538.439,0.0
51973.0,STARLINK-3679,PAYLOAD,2022-08-25 14:00:01,15.08850239,0.0001821999999999,53.2173,69.6004,69.5943,100.1804,0.0014844,0.00023422,0.0,0 STARLINK-3679,1 51973U 22025T   22237.58334491  .00023422  00000-0  14844-2 0  9995,2 51973  53.2173  69.6004 0001822  69.5943 100.1804 15.08850239  1301,6917.849,95.437,540.975,538.4540000000002,0.0
51973.0,STARLINK-3679,PAYLOAD,2022-08-25 22:00:00,15.08836361,0.0001921999999999,53.2169,68.1025,63.8515,117.5445,0.001943,0.00030767,0.0,0 STARLINK-3679,1 51973U 22025T   22237.91667824  .00030767  00000-0  19430-2 0  9997,2 51973  53.2169  68.1025 0001922  63.8515 117.5445 15.08836361  1309,6917.892,95.438,541.086,538.427,0.0
51973.0,STARLINK-3679,PAYLOAD,2022-08-26 14:00:01,15.0884837,0.0001706999999999,53.217,65.108,71.7242,132.9485,-0.00089068,-0.00014439,0.0,0 STARLINK-3679,1 51973U 22025T   22238.58335648 -.00014439  00000-0 -89068-3 0  9992,2 51973  53.2170  65.1080 0001707  71.7242 132.9485 15.08848370  1303,6917.855,95.437,540.901,538.539,0.0
51973.0,STARLINK-3679,PAYLOAD,2022-08-26 22:00:00,15.08817442,0.0001792,53.2169,63.6131,63.6708,152.5422,0.0022728,0.00036047,0.0,0 STARLINK-3679,1 51973U 22025T   22238.91667824  .00036047  00000-0  22728-2 0  9999,2 51973  53.2169  63.6131 0001792  63.6708 152.5422 15.08817442  1307,6917.949000000001,95.439,541.054,538.575,0.0
51973.0,STARLINK-3679,PAYLOAD,2022-08-27 14:00:01,15.08852758,0.0001659,53.2168,60.6188,73.2961,166.0797,-0.00068771,-0.0001122,0.0,0 STARLINK-3679,1 51973U 22025T   22239.58334491 -.00011220  00000-0 -68771-3 0  9991,2 51973  53.2168  60.6188 0001659  73.2961 166.0797 15.08852758  1309,6917.840999999999,95.437,540.854,538.559,0.0
51973.0,STARLINK-3679,PAYLOAD,2022-08-27 22:00:00,15.08823183,0.0001747,53.2166,59.1238,65.1511,185.8346,0.0025772,0.00040948,0.0,0 STARLINK-3679,1 51973U 22025T   22239.91667824  .00040948  00000-0  25772-2 0  9997,2 51973  53.2166  59.1238 0001747  65.1511 185.8346 15.08823183 27582,6917.932,95.439,541.005,538.5880000000002,0.0
51973.0,STARLINK-3679,PAYLOAD,2022-08-28 14:00:01,15.08851234,0.000156,53.2165,56.1295,73.4851,200.7014,-0.0017842,-0.0002858,0.0,0 STARLINK-3679,1 51973U 22025T   22240.58334491 -.00028580  00000-0 -17842-2 0  9992,2 51973  53.2165  56.1295 0001560  73.4851 200.7014 15.08851234 27681,6917.846,95.437,540.79,538.632,0.0
51973.0,STARLINK-3679,PAYLOAD,2022-08-28 22:00:00,15.08809523,0.0001621,53.2163,54.6345,64.8126,220.9718,0.0028178,0.00044805,0.0,0 STARLINK-3679,1 51973U 22025T   22240.91667824  .00044805  00000-0  28178-2 0  9998,2 51973  53.2163  54.6345 0001621  64.8126 220.9718 15.08809523  1305,6917.974,95.439,540.96,538.717,0.0
51973.0,STARLINK-3679,PAYLOAD,2022-08-29 14:00:01,15.08853466,0.0001558,53.2164,51.6403,73.3046,235.6391,-0.0012259999999999,-0.00019754,0.0,0 STARLINK-3679,1 51973U 22025T   22241.58334491 -.00019754  00000-0 -12260-2 0  9995,2 51973  53.2164  51.6403 0001558  73.3046 235.6391 15.08853466  1308,6917.839,95.437,540.7819999999998,538.626,0.0
51973.0,STARLINK-3679,PAYLOAD,2022-08-29 16:00:00,15.08854429,0.0001583,53.2164,51.2668,70.1379,331.7067,-0.0016684,-0.00026753,0.0,0 STARLINK-3679,1 51973U 22025T   22241.66667824 -.00026753  00000-0 -16684-2 0  9994,2 51973  53.2164  51.2668 0001583  70.1379 331.7067 15.08854429 27844,6917.8359999999975,95.437,540.7959999999998,538.606,0.0
51973.0,STARLINK-3679,PAYLOAD,2022-08-29 22:00:00,15.08825821,0.0001594,53.2163,50.1452,64.5207,256.0299,0.0022944,0.00036402,0.0,0 STARLINK-3679,1 51973U 22025T   22241.91667824  .00036402  00000-0  22944-2 0  9998,2 51973  53.2163  50.1452 0001594  64.5207 256.0299 15.08825821  1304,6917.924,95.438,540.891,538.686,0.0
51973.0,STARLINK-3679,PAYLOAD,2022-08-30 14:00:01,15.08842513,0.0001476,53.2167,47.1511,70.4482,273.2759,-0.0013561,-0.00021807,0.0,0 STARLINK-3679,1 51973U 22025T   22242.58334491 -.00021807  00000-0 -13561-2 0  9993,2 51973  53.2167  47.1511 0001476  70.4482 273.2759 15.08842513  1309,6917.873000000001,95.437,540.759,538.717,0.0
51973.0,STARLINK-3679,PAYLOAD,2022-08-30 16:00:00,15.08839607,0.0001519,53.2166,46.7776,67.4233,9.1974,-0.0016067999999999,-0.00025769,0.0,0 STARLINK-3679,1 51973U 22025T   22242.66667824 -.00025769  00000-0 -16068-2 0  9997,2 51973  53.2166  46.7776 0001519  67.4233   9.1974 15.08839607 27992,6917.882,95.438,540.797,538.696,0.0
51973.0,STARLINK-3679,PAYLOAD,2022-08-30 22:00:00,15.08809892,0.0001541999999999,53.2167,45.6561,61.8134,293.5004,0.0028759,0.00045741,0.0,0 STARLINK-3679,1 51973U 22025T   22242.91667824  .00045741  00000-0  28759-2 0  9995,2 51973  53.2167  45.6561 0001542  61.8134 293.5004 15.08809892  1300,6917.972,95.439,540.904,538.771,0.0
51973.0,STARLINK-3679,PAYLOAD,2022-08-31 14:00:01,15.08854181,0.0001248,53.2174,42.6636,62.7363,315.6824,-0.0014895,-0.00023924,0.0,0 STARLINK-3679,1 51973U 22025T   22243.58334491 -.00023924  00000-0 -14895-2 0  9997,2 51973  53.2174  42.6636 0001248  62.7363 315.6824 15.08854181  1302,6917.837,95.437,540.565,538.839,0.0
